[{"OBJECT_NAME":"SHIYAN-1 (SY-1)","OBJECT_ID":"2004-012A","EPOCH":"2026-03-09T17:40:34.066560","MEAN_MOTION":15.31043463,"ECCENTRICITY":0.00058726,"INCLINATION":97.8764,"RA_OF_ASC_NODE":140.5238,"ARG_OF_PERICENTER":23.6952,"MEAN_ANOMALY":336.4557,"EPHEMERIS_TYPE":0,"CLASSIFICATION_TYPE":"U","NORAD_CAT_ID":28220,"ELEMENT_SET_NO":999,"REV_AT_EPOCH":19586,"BSTAR":0.00054854449,"MEAN_MOTION_DOT":0.00016393,"MEAN_MOTION_DDOT":0},{"OBJECT_NAME":"STARLINK-36100","OBJECT_ID":"2025-286T","EPOCH":"2026-03-09T23:32:57.232608","MEAN_MOTION":15.30206221,"ECCENTRICITY":0.00014631,"INCLINATION":53.1607,"RA_OF_ASC_NODE":356.935,"ARG_OF_PERICENTER":120.9525,"MEAN_ANOMALY":239.1619,"EPHEMERIS_TYPE":0,"CLASSIFICATION_TYPE":"U","NORAD_CAT_ID":66942,"ELEMENT_SET_NO":999,"REV_AT_EPOCH":1539,"BSTAR":0.00087551696,"MEAN_MOTION_DOT":0.00025666,"MEAN_MOTION_DDOT":0}]
